ID,email,name,address1,address2,state,city,country,website,hours,phone,zip,lat,lon
1126,electricstereo@hotmail.com,Galaxy LEDs,2720 cheakamus way suite 2,Test Address Line 2,British Columbia,Whistler,Canada,www.example.com,9AM - 5PM Monday - Friday - Except Holidays,011-801-000-0000,V0N 1B2,50.0880454,-123.003571
323,scclifton@hotmail.com,Green Thumb Hydroponics,PO Box 34002,Test Address Line 2,Manitoba,Winnipeg,Canada,www.example.com,9AM - 5PM Monday - Friday - Except Holidays,011--801-000-0000,R3T 5T5,49.7896802,-97.1571686
16,darren@mygreenplanet.com,Gardening Unlimited,15374-103A Avenue,Test Address Line 2,British Columbia,Surrey,Canada,www.example.com,9AM - 5PM Monday - Friday - Except Holidays,011--801-000-0000,V3R 7A2,49.1904806,-122.7955355
40,vindor@shawbiz.ca,Grofax,#103-44195 Yale Rd. West,Test Address Line 2,British Columbia,Chilliwack,Canada,www.example.com,9AM - 5PM Monday - Friday - Except Holidays,011--801-000-0000,V2R 4H2,49.1457679,-122.001634
709,cundersun@yahoo.com,IE Hydrogarden,217 chemin Laurent,Test Address Line 2,Quebec,Saint-Adolphe-d`Howard,Canada,www.example.com,9AM - 5PM Monday - Friday - Except Holidays,011--801-000-0000,J0T 2B0,45.9965455,-74.283765
895,rburnettsrn.rb@gmail.com,Green Spot Hydro,214 Queen Street,Test Address Line 2,Ontario,Sarnia,Canada,www.example.com,9AM - 5PM Monday - Friday - Except Holidays,011--801-000-0000,N7T2R6,42.9653335,-82.4074585
577,info@tricoma.cl,Verde Manana,Independencia 50 Oficina 8,Test Address Line 2,Los Lagos,Puerto Varas,Mexico,www.example.com,9AM - 5PM Monday - Friday - Except Holidays,011--801-000-0000,5550550,-41.3128966,-72.9864116
748,sales@easygrow.co.nz,Evergreen Garden supply,Unit 9/69 Wiri Station Rd,Test Address Line 2,Auckland,Manukau,New Zealand,www.example.com,9AM - 5PM Monday - Friday - Except Holidays,011--801-000-0000,2104,-36.9980474,174.875025
364,sorokin.ivan@gmail.com,Greener Side of Life,Blah Blah,Test Address Line 2,Dealer,Kiev,Russia,www.example.com,9AM - 5PM Monday - Friday - Except Holidays,011--801-000-0000,3035,50.433096,30.485026
363,sorokin.ivan@gmail.com,Gro More Garden Supply,15 Uritskogo flat 95,Test Address Line 2,Dealer,Kiev,Russia,www.example.com,9AM - 5PM Monday - Friday - Except Holidays,011--801-000-0000,3035,50.433096,30.485026
1359,info@santyerbasi.com,Horticultura Técnica,Berlinés 4 Bajo,Test Address Line 2,Barcelona,Barcelona,Spain,www.example.com,9AM - 5PM Monday - Friday - Except Holidays,011--801-000-0000,8006,41.4035687,2.1399925
258,sales@sgsak.com,Organic Garden Center,12870 Old Seward Hwy #144,Test Address Line 2,Alaska,Anchorage,United States,www.example.com,9AM - 5PM Monday - Friday - Except Holidays,011--801-000-0000,99515,61.1035282,-149.8589795
915,russell.peterson@alaska.net,Craig Robbins LLC,1687 Harbor Way,Test Address Line 2,Alaska,Juneau,United States,www.example.com,9AM - 5PM Monday - Friday - Except Holidays,011--801-000-0000,99801,58.3042572,-134.4299795
258,sales@sgsak.com,Palm Tree Hydroponics,P.O. Box 125,Test Address Line 2,Alaska,Cold Bay,United States,www.example.com,9AM - 5PM Monday - Friday - Except Holidays,011--801-000-0000,99571,55.2157912,-162.7686644
235,secretgardensupply@gmail.com,Green Door Hydroponics,152 Macleay Rd.,Test Address Line 2,Washington,Sequim,United States,www.example.com,9AM - 5PM Monday - Friday - Except Holidays,011--801-000-0000,98382,48.1086574,-123.17149
196,Westcoastorganics@gmail.com,Cost Plus Hydro,8701 N Division St. Suite D,Test Address Line 2,Washington,Spokane,United States,www.example.com,9AM - 5PM Monday - Friday - Except Holidays,011--801-000-0000,99218,47.737011,-117.4119479
813,danjsperry@gmail.com,All Gro Hydroponics (MI),4625 Lake WA Blvd. NE,Test Address Line 2,Washington,Kirkland,United States,www.example.com,9AM - 5PM Monday - Friday - Except Holidays,011--801-000-0000,98033,47.7020536,-122.1806374
57,ryan@sodohydro.com,Bloom Garden Supply,1727 1st Avenue South,Test Address Line 2,Washington,Seattle,United States,www.example.com,9AM - 5PM Monday - Friday - Except Holidays,011--801-000-0000,98134,47.5879367,-122.3342236
703,indoortropics@gmail.com,Grass Valley Hydrogarden,5930 Sunburst Lane Unit B,Test Address Line 2,Washington,Cashmere,United States,www.example.com,9AM - 5PM Monday - Friday - Except Holidays,011--801-000-0000,98815,47.529952,-120.493102
1073,arnoldmarkarnold@gmail.com,Boldly Grow Hydro,422 Mill Avenue South # 302,Test Address Line 2,Washington,Renton,United States,www.example.com,9AM - 5PM Monday - Friday - Except Holidays,011--801-000-0000,98057,47.47728,-122.202678
1130,gjames@topics-ent.com,DNA Genetics,3405 Lind Ave,Test Address Line 2,Washington,Renton,United States,www.example.com,9AM - 5PM Monday - Friday - Except Holidays,011--801-000-0000,98057,47.449196,-122.2236192
320,info@elementalsolution.com,Long Beach Hydroponics,20 42nd St NE Suite B,Test Address Line 2,Washington,Auburn,United States,www.example.com,9AM - 5PM Monday - Friday - Except Holidays,011--801-000-0000,98002,47.3442956,-122.2297883
320,info@elementalsolution.com,Room To Grow (CO),725 R ST NE,Test Address Line 2,Washington,Auburn,United States,www.example.com,9AM - 5PM Monday - Friday - Except Holidays,011--801-000-0000,98002,47.3150252,-122.2085299
164,tom@montana.net,Hydro Your Own,2105 Ottawa Street,Test Address Line 2,Montana,Butte,United States,www.example.com,9AM - 5PM Monday - Friday - Except Holidays,011--801-000-0000,59701,45.989772,-112.507614
566,indoorgardensupplyllc@gmail.com,Frontier Services,1250 Atlantic Ave.,Test Address Line 2,Washington,Woodland,United States,www.example.com,9AM - 5PM Monday - Friday - Except Holidays,011--801-000-0000,98674,45.908625,-122.743098
1265,jeanette52@outlook.com,Cedar Graphics,P.O. Box 643,Test Address Line 2,Oregon,Hermiston,United States,www.example.com,9AM - 5PM Monday - Friday - Except Holidays,011--801-000-0000,97838,45.8282162,-119.2591627
256,growgreenmontana@hotmail.com,All Seasons Hydroponics,P.O. Box 11138,Test Address Line 2,Montana,Bozeman,United States,www.example.com,9AM - 5PM Monday - Friday - Except Holidays,011--801-000-0000,59719,45.65,-111.17
256,growgreenmontana@hotmail.com,Michigan Garden Supply,80085 Gallatin Road Suite F,Test Address Line 2,Montana,Bozeman,United States,www.example.com,9AM - 5PM Monday - Friday - Except Holidays,011--801-000-0000,59718,45.6469983,-111.1933397
1138,jordan@evergreengardensupply.com,Budmaster LED,10415 NE Sandy Blvd.,Test Address Line 2,Oregon,Portland,United States,www.example.com,9AM - 5PM Monday - Friday - Except Holidays,011--801-000-0000,97220,45.5591341,-122.5553697
66,tim@bloomgardensupply.com,Garden Spout Portland,518 Northeast 20TH Ave.,Test Address Line 2,Oregon,Portland,United States,www.example.com,9AM - 5PM Monday - Friday - Except Holidays,011--801-000-0000,97232,45.5269212,-122.6451395
14,nlgdavid@yahoo.com,Cultivate Hydroponics & Organics,9290 South Beaverton Hills Highway,Test Address Line 2,Oregon,Beaverton,United States,www.example.com,9AM - 5PM Monday - Friday - Except Holidays,011--801-000-0000,97005,45.4864324,-122.772337
652,kevinc@advancednutrients.com,Victory Hydro Gardens,7335 SE 18th Ave.,Test Address Line 2,Oregon,Portland,United States,www.example.com,9AM - 5PM Monday - Friday - Except Holidays,011--801-000-0000,97202,45.471468,-122.646744
1135,ben@portlandhydro.com,Cannabis Now Magazine,11564 SW Pacific Highway,Test Address Line 2,Oregon,Tigard,United States,www.example.com,9AM - 5PM Monday - Friday - Except Holidays,011--801-000-0000,97223,45.4397586,-122.750194
196,Westcoastorganics@gmail.com,Method Seven Employee Specials $50.00,12410 SE 282nd Ave. Unit C,Test Address Line 2,Oregon,Boring,United States,www.example.com,9AM - 5PM Monday - Friday - Except Holidays,011--801-000-0000,97009,45.4331375,-122.3717846
996,guy@willametteindoorgardensupply.com,Urban Grower,408 Beaver Creek Road Suite 402,Test Address Line 2,Oregon,Oregon City,United States,www.example.com,9AM - 5PM Monday - Friday - Except Holidays,011--801-000-0000,97045,45.3331664,-122.5913967
879,sales@glhydroco.com,Northeast Hydroponics and Homebrewing,5998 US 31 South,Test Address Line 2,Michigan,Charlevoix,United States,www.example.com,9AM - 5PM Monday - Friday - Except Holidays,011--801-000-0000,49720,45.2934376,-85.2956272
879,sales@glhydroco.com,Northeast Hydroponics and Homebrewing,05998 U.S. 31 South,Test Address Line 2,Michigan,Charlievoix,United States,www.example.com,9AM - 5PM Monday - Friday - Except Holidays,011--801-000-0000,49720,45.2917825,-85.3012187
842,dealerservices@methodseven.com,Specialized Bicycle Components,1026 NE Irvine Street,Test Address Line 2,Oregon,McMinnville,United States,www.example.com,9AM - 5PM Monday - Friday - Except Holidays,011--801-000-0000,97128,45.2152928,-123.1895839
886,kelwah50@gmail.com,The Garden Connection,3837 River Rd. N.,Test Address Line 2,Oregon,Keiser,United States,www.example.com,9AM - 5PM Monday - Friday - Except Holidays,011--801-000-0000,97303,44.9812814,-123.0266103
689,thehomegrownconnection@hotmail.com,"Fox Head, Inc",407 Wilton Road,Test Address Line 2,Maine,Farmington,United States,www.example.com,9AM - 5PM Monday - Friday - Except Holidays,011--801-000-0000,4938,44.6384573,-70.1533055
532,kelly@corvallishydro.com,Garden all Year,5490 SW Philomath Blvd.,Test Address Line 2,Oregon,Corvallis,United States,www.example.com,9AM - 5PM Monday - Friday - Except Holidays,011--801-000-0000,97333,44.5498519,-123.3142268
693,support@gtghydroponics.com,Flora Hydroponics,PO Box 235,Test Address Line 2,Vermont,Underhill,United States,www.example.com,9AM - 5PM Monday - Friday - Except Holidays,011--801-000-0000,5489,44.5481845,-72.8763806
247,bartlettfunnyfarm@gmail.com,Hydroponics Inc.,3 Bird Hill Road,Test Address Line 2,Maine,Greenwood,United States,www.example.com,9AM - 5PM Monday - Friday - Except Holidays,011--801-000-0000,4225,44.4005778,-70.7035016
1297,growinsideout@gate.net,Grofax 5,1766 Federal Road Suite D,Test Address Line 2,Maine,Livermore,United States,www.example.com,9AM - 5PM Monday - Friday - Except Holidays,011--801-000-0000,4253,44.3736467,-70.2504741
976,sales@growitbest.com,"Timponic Produce Management Solutions, LTD.",628 SW Glacier Ave Suite C,Test Address Line 2,Oregon,Redmond,United States,www.example.com,9AM - 5PM Monday - Friday - Except Holidays,011--801-000-0000,97756,44.270296,-121.175022
1192,kelly@dakine420.com,Flint Digital,2574 NW Champion Circle,Test Address Line 2,Oregon,Bend,United States,www.example.com,9AM - 5PM Monday - Friday - Except Holidays,011--801-000-0000,97701,44.077885,-121.352588
115,brent@theherbcenter.net,The Green Thumb,2205 Northeast Division,Test Address Line 2,Oregon,Bend,United States,www.example.com,9AM - 5PM Monday - Friday - Except Holidays,011--801-000-0000,97701,44.071888,-121.306293
650,greenersideoflife@comcast.net,Mile High Cannabis,623 W. Centennial Ave.,Test Address Line 2,Oregon,"Springfield, OR",United States,www.example.com,9AM - 5PM Monday - Friday - Except Holidays,011--801-000-0000,97477,44.057122,-123.0347239
366,abeaudoin@bendbroadband.com,Advanced Nutrients,35 NW Bond St.,Test Address Line 2,Oregon,Bend,United States,www.example.com,9AM - 5PM Monday - Friday - Except Holidays,011--801-000-0000,97701,44.052078,-121.316763
416,mattmonger@gmail.com,Flora Grow Ltd.,2440 Adams St.,Test Address Line 2,Oregon,Eugene,United States,www.example.com,9AM - 5PM Monday - Friday - Except Holidays,011--801-000-0000,97405,44.032337,-123.107447
416,mattmonger@gmail.com,Tru Bloomz Hydroponics,88680 McVay Hwy,Test Address Line 2,Oregon,Eugene,United States,www.example.com,9AM - 5PM Monday - Friday - Except Holidays,011--801-000-0000,97405,44.0173905,-123.0254407
753,amacri@comcast.net,Grow Guru Horticulture (Pty) South Africa,362 Richardson Road,Test Address Line 2,Maine,Hiram,United States,www.example.com,9AM - 5PM Monday - Friday - Except Holidays,011--801-000-0000,4041,43.814693,-70.7926856
65,207katahdin@gmail.com,Horizen Hydroponics/Growers Outlet,659 Warren Ave,Test Address Line 2,Maine,Portland,United States,www.example.com,9AM - 5PM Monday - Friday - Except Holidays,011--801-000-0000,4103,43.687259,-70.327667
980,hempknight848@gmail.com,MethodSeven Sales,8875 Jefferson Rd,Test Address Line 2,Michigan,Lakeview,United States,www.example.com,9AM - 5PM Monday - Friday - Except Holidays,011--801-000-0000,48850,43.4893334,-85.2627696
327,growtchs@gmail.com,Horticontrol,1965 Holton Road,Test Address Line 2,Michigan,Muskegon,United States,www.example.com,9AM - 5PM Monday - Friday - Except Holidays,011--801-000-0000,49445,43.2892963,-86.2153388
234,omaha@paradigmgardens.com,Battle Creek Indoor Gardening,4501 Helgesen Dr.,Test Address Line 2,Wisconsin,Madison,United States,www.example.com,9AM - 5PM Monday - Friday - Except Holidays,011--801-000-0000,53718,43.066109,-89.30643
669,kevinpratt808@gmail.com,Illumitex,545 Hooksett Rd. Unit #24,Test Address Line 2,New Hampshire,Manchester,United States,www.example.com,9AM - 5PM Monday - Friday - Except Holidays,011--801-000-0000,3104,43.0149485,-71.4506425
252,happyharvesterburton@gmail.com,New Mexico Hydroponics,4410 S. Saginaw,Test Address Line 2,Michigan,Burton,United States,www.example.com,9AM - 5PM Monday - Friday - Except Holidays,011--801-000-0000,48529,42.963458,-83.670913
326,myocina@yahoo.com,Purely Hydroponic,P.O. Box 251,Test Address Line 2,New York,Corfu,United States,www.example.com,9AM - 5PM Monday - Friday - Except Holidays,011--801-000-0000,14036,42.9600595,-78.4055767
479,secondchance19@gmail.com,Outside In Hydro & Organics AU,692 Franklin St.,Test Address Line 2,New York,Skaneateles,United States,www.example.com,9AM - 5PM Monday - Friday - Except Holidays,011--801-000-0000,13152,42.954633,-76.455242
326,myocina@yahoo.com,Smith Indoor Garden,1102 Ganson Ave.,Test Address Line 2,New York,Corfu,United States,www.example.com,9AM - 5PM Monday - Friday - Except Holidays,011--801-000-0000,14036,42.954374,-78.4073499
479,secondchance19@gmail.com,Harvest Time Hydroponics AU,PO Box 324,Test Address Line 2,New York,Skaneateles,United States,www.example.com,9AM - 5PM Monday - Friday - Except Holidays,011--801-000-0000,13152,42.947011,-76.4291017
1356,pjw368@gmail.com,Bedford Grow LLC,1860 Stilesgate St. SE,Test Address Line 2,Michigan,Grand Rapids,United States,www.example.com,9AM - 5PM Monday - Friday - Except Holidays,011--801-000-0000,49508,42.895731,-85.619457
1238,greenmtnhydro@gmail.com,Rhode Island Hydroponics,106 North Street,Test Address Line 2,Vermont,Bennington,United States,www.example.com,9AM - 5PM Monday - Friday - Except Holidays,011--801-000-0000,5201,42.8785912,-73.1971405
73,Horizenhydroponics@gmail.com,Greenlife Garden Supply,7720 Clyde Park Ave SW,Test Address Line 2,Michigan,Byron Center,United States,www.example.com,9AM - 5PM Monday - Friday - Except Holidays,011--801-000-0000,49315,42.8243584,-85.6828625
655,info@HGRsupply.com,Cedar Graphics,15231 N. Holly Rd.,Test Address Line 2,Michigan,Holly,United States,www.example.com,9AM - 5PM Monday - Friday - Except Holidays,011--801-000-0000,48442,42.8166007,-83.6283928
1312,Jaymthorburn@gmail.com,The University of Western Australia,2208 E Michigan Ave.,Test Address Line 2,Michigan,Lansing,United States,www.example.com,9AM - 5PM Monday - Friday - Except Holidays,011--801-000-0000,48912,42.7333408,-84.5196369
982,jeff.gibson@superiorgrowers.com,Eye Care Center of Snohomish,5711 Enterprise Dr.,Test Address Line 2,Michigan,Lansing,United States,www.example.com,9AM - 5PM Monday - Friday - Except Holidays,011--801-000-0000,48911,42.674705,-84.5278189
176,Elizabeth.Kelly@superiorgrowers.com,Bear Valley Hydroponics & Homebrewing,5711 Enterprise Drive,Test Address Line 2,Michigan,East Lansing,United States,www.example.com,9AM - 5PM Monday - Friday - Except Holidays,011--801-000-0000,48911,42.6745155,-84.5284082
676,Info@thegrowstop.com,Phenotype Farmers,7380 Highland Road,Test Address Line 2,Michigan,Waterford,United States,www.example.com,9AM - 5PM Monday - Friday - Except Holidays,011--801-000-0000,48327,42.661782,-83.434178
361,Organicagardensupply@gmail.com,Lux Cuttings,467 Delaware Ave.,Test Address Line 2,New York,Albany,United States,www.example.com,9AM - 5PM Monday - Friday - Except Holidays,011--801-000-0000,12209,42.6403869,-73.784468
194,jsorensen@hydroyourown.com,A Fertile World,8501 75th Street Unit C,Test Address Line 2,Wisconsin,Kenosha,United States,www.example.com,9AM - 5PM Monday - Friday - Except Holidays,011--801-000-0000,53142,42.565746,-87.910436
389,bilcoind@centurylink.net,Hydro Capitol,PO Box 1105,Test Address Line 2,Oregon,Eagle Point,United States,www.example.com,9AM - 5PM Monday - Friday - Except Holidays,011--801-000-0000,97524,42.4726258,-122.8028177
562,sger90@yahoo.com,Bare Roots,720 Willow Way,Test Address Line 2,New York,Ithaca,United States,www.example.com,9AM - 5PM Monday - Friday - Except Holidays,011--801-000-0000,14850,42.4525563,-76.5062187
938,info@indooreden.net,"Soldiers of Green, SL / Sant Yerbasi",9281 Michigan 36,Test Address Line 2,Michigan,Whitmore Lake,United States,www.example.com,9AM - 5PM Monday - Friday - Except Holidays,011--801-000-0000,48189,42.4423622,-83.7637945
165,Sales@ultragreenhydroponics.com,509 Garden Supply,29541 W. 8 Mile Road,Test Address Line 2,Michigan,Livonia,United States,www.example.com,9AM - 5PM Monday - Friday - Except Holidays,011--801-000-0000,48152,42.440061,-83.377306
389,bilcoind@centurylink.net,The Homegrown Connection,1350 Dry Creek Rd.,Test Address Line 2,Oregon,Eagle Point,United States,www.example.com,9AM - 5PM Monday - Friday - Except Holidays,011--801-000-0000,97524,42.397685,-122.764085
217,orders@gyostuff.com,Grow Green Montana,2400 Massachusetts Ave.,Test Address Line 2,Massachusetts,Cambridge,United States,www.example.com,9AM - 5PM Monday - Friday - Except Holidays,011--801-000-0000,2140,42.3970597,-71.1302576
872,calebh@media.mit.edu,Hydro Center,"20 Ames St, E15-384F",Test Address Line 2,Massachusetts,Cambridge,United States,www.example.com,9AM - 5PM Monday - Friday - Except Holidays,011--801-000-0000,2142,42.3607011,-71.0877227
569,bbhydro@wowway.biz,HydroDynamics International Inc.,24330 Ann Arbor Trail,Test Address Line 2,Michigan,Dearborn Heights,United States,www.example.com,9AM - 5PM Monday - Friday - Except Holidays,011--801-000-0000,48127,42.350488,-83.276585
788,andrew.sereno@gmail.com,Sea of Green Flagstaff,12760 Mckinley Heights Dr.,Test Address Line 2,Michigan,Chelsea,United States,www.example.com,9AM - 5PM Monday - Friday - Except Holidays,011--801-000-0000,48118,42.342208,-83.981578
867,Tom@greenpathgardensupply.com,Rootdown Hydroponics,276 West Main Street,Test Address Line 2,Massachusetts,Northborough,United States,www.example.com,9AM - 5PM Monday - Friday - Except Holidays,011--801-000-0000,1532,42.309046,-71.658022
119,ryan@zoocitygrowersupply.com,Discount Hydroponics,3514 S. Westnedge,Test Address Line 2,Michigan,Kalamazoo,United States,www.example.com,9AM - 5PM Monday - Friday - Except Holidays,011--801-000-0000,49008,42.2564357,-85.5898673
119,ryan@zoocitygrowersupply.com,American Agriculture,534 Parker Ave.,Test Address Line 2,Michigan,Kalamazoo,United States,www.example.com,9AM - 5PM Monday - Friday - Except Holidays,011--801-000-0000,49008,42.2536123,-85.5903393
184,mightygrow@gmail.com,AHL Garden Supply,2418 W. Michigan Ave.,Test Address Line 2,Michigan,Jackson,United States,www.example.com,9AM - 5PM Monday - Friday - Except Holidays,011--801-000-0000,49207,42.250302,-84.443314
1131,andy@fullbloomhydroponics.net,Bubbleman,415 Williamson Way,Test Address Line 2,Oregon,Ashland,United States,www.example.com,9AM - 5PM Monday - Friday - Except Holidays,011--801-000-0000,97520,42.2005854,-122.7056104
120,Bhiers1@gmail.com,Rosebud Magazine,2305 Ashland St. C258,Test Address Line 2,Oregon,Ashland,United States,www.example.com,9AM - 5PM Monday - Friday - Except Holidays,011--801-000-0000,97520,42.1856642,-122.67095
184,mightygrow@gmail.com,GYO,9600 Grossman Road,Test Address Line 2,Michigan,Manchester,United States,www.example.com,9AM - 5PM Monday - Friday - Except Holidays,011--801-000-0000,48158,42.122538,-84.0618779
750,info.warner@gmail.com,Wholesale Garden Center,273 Hanover St,Test Address Line 2,Massachusetts,Hanover,United States,www.example.com,9AM - 5PM Monday - Friday - Except Holidays,011--801-000-0000,2339,42.1150589,-70.8321322
362,harvestmoonhydro@verizon.net,Cannatest,29 Washington Street/Route 1,Test Address Line 2,Massachusetts,Foxboro,United States,www.example.com,9AM - 5PM Monday - Friday - Except Holidays,011--801-000-0000,2035,42.0653812,-71.2478251
1357,DavidP@Cultivationinnovations.com,Healthy Harvest,15223 S Dixie Highway,Test Address Line 2,Michigan,Monroe,United States,www.example.com,9AM - 5PM Monday - Friday - Except Holidays,011--801-000-0000,48161,41.8924196,-83.4180942
223,melvinmaggie@tds.net,Seattle's Hydro Spot,12944 Cadmus Road,Test Address Line 2,Michigan,Clayton,United States,www.example.com,9AM - 5PM Monday - Friday - Except Holidays,011--801-000-0000,49235,41.871231,-84.275189
60,Greenmattersonline@yahoo.com,Big Grow Hydroponics,592 Wareham St.,Test Address Line 2,Massachusetts,Middleboro,United States,www.example.com,9AM - 5PM Monday - Friday - Except Holidays,011--801-000-0000,2346,41.8226161,-70.8176743
774,MJohnson@lushledlighting.com,Grow Gear,1964 South 11th Street,Test Address Line 2,Michigan,Niles,United States,www.example.com,9AM - 5PM Monday - Friday - Except Holidays,011--801-000-0000,49120,41.7967626,-86.2484614
112,hawk455@verizon.net,Heavy Harvest Hydroponics,709 Warwick Ave,Test Address Line 2,Rhode Island,Warwick,United States,www.example.com,9AM - 5PM Monday - Friday - Except Holidays,011--801-000-0000,2888,41.756791,-71.404852
891,toledoindoorgarden@gmail.com,Super Roots Hydroponics,5614 Secor Rd,Test Address Line 2,Ohio,Toledo,United States,www.example.com,9AM - 5PM Monday - Friday - Except Holidays,011--801-000-0000,43623,41.7174182,-83.6237811
346,ogc.contact@gmail.com,Hydro Master,5215 Monroe Street Suite 10,Test Address Line 2,Ohio,Toledo,United States,www.example.com,9AM - 5PM Monday - Friday - Except Holidays,011--801-000-0000,43623,41.700277,-83.651213
368,rortega43@gmail.com,High Desert Hydroponics,6802 Post Road,Test Address Line 2,Rhode Island,North Kingstown,United States,www.example.com,9AM - 5PM Monday - Friday - Except Holidays,011--801-000-0000,2852,41.612583,-71.456776
1365,Iancolandro@gmail.com,Advanced Grow Labs,467 Plans Road,Test Address Line 2,Connecticut,Milford,United States,www.example.com,9AM - 5PM Monday - Friday - Except Holidays,011--801-000-0000,6461,41.226667,-73.090615
234,omaha@paradigmgardens.com,Hydroponics Connection,8949 J Street Suite #5,Test Address Line 2,Nebraska,Omaha,United States,www.example.com,9AM - 5PM Monday - Friday - Except Holidays,011--801-000-0000,68127,41.214322,-96.051406
241,moria@northcoasths.com,GreenMile Hydroponic Garden,1580 Nursery Way Suite Q,Test Address Line 2,California,Mckinleyville,United States,www.example.com,9AM - 5PM Monday - Friday - Except Holidays,011--801-000-0000,95519,40.9366796,-124.1031756
240,jkattman@neo.rr.com,Total Hydroponics Center,1664 North Main Street #25,Test Address Line 2,Ohio,Canton,United States,www.example.com,9AM - 5PM Monday - Friday - Except Holidays,011--801-000-0000,44720,40.897207,-81.404998
266,Email@sunflowersupplies.com,Harvest Moon Hydroponics Foxboro,3104 Expressway Drive South,Test Address Line 2,New York,Islandia,United States,www.example.com,9AM - 5PM Monday - Friday - Except Holidays,011--801-000-0000,11749,40.8085064,-73.1811875
228,tito@afertileworld.com,Amazon FBA UK,6 Fifth Street,Test Address Line 2,California,Eureka,United States,www.example.com,9AM - 5PM Monday - Friday - Except Holidays,011--801-000-0000,95501-0334,40.8010151,-124.171114
523,danskye@hightimes.com,Acre Garden Supply,"250 W. 57th Street, Suite 920",Test Address Line 2,NY,New York,United States,www.example.com,9AM - 5PM Monday - Friday - Except Holidays,011--801-000-0000,10107,40.7662723,-73.9823998
470,Dan@hightimes.com,Grow 4XS AU,250 W. 57th Street,Test Address Line 2,New York,New York,United States,www.example.com,9AM - 5PM Monday - Friday - Except Holidays,011--801-000-0000,10107,40.7662723,-73.9823998
20,james@methodseven.com,Method Seven,419 Park Ave. South Suite E,Test Address Line 2,New York,New York,United States,www.example.com,9AM - 5PM Monday - Friday - Except Holidays,011--801-000-0000,10016,40.7436697,-73.9835213
908,barerootsredding@gmail.com,Samurai Greenhouse Supply,1615 E. Cypress,Test Address Line 2,California,Redding,United States,www.example.com,9AM - 5PM Monday - Friday - Except Holidays,011--801-000-0000,96002,40.5707552,-122.3409485
457,joshchristian13@yahoo.com,Highland Horticultural,6851 AIRPORT RD,Test Address Line 2,California,Redding,United States,www.example.com,9AM - 5PM Monday - Friday - Except Holidays,011--801-000-0000,96002-9475,40.486616,-122.292859
1086,laura.noel@ymail.com,LED It Grow,4679 Edie Place,Test Address Line 2,Colorado,Erie,United States,www.example.com,9AM - 5PM Monday - Friday - Except Holidays,011--801-000-0000,80516,40.068264,-105.023698
391,tommy@bhocenter.com,Green Thumb Gardening,1630 N. 63rd St. Unit #5,Test Address Line 2,Colorado,Boulder,United States,www.example.com,9AM - 5PM Monday - Friday - Except Holidays,011--801-000-0000,80301,40.0155063,-105.2060061
869,Danmetsch@yahoo.com,Green Matters Pocasset,7464 Arapahoe Road,Test Address Line 2,Colorado,Boulder,United States,www.example.com,9AM - 5PM Monday - Friday - Except Holidays,011--801-000-0000,80303,40.0145712,-105.1792792
391,tommy@bhocenter.com,How's It Growing LLC,4775 Hancock Dr,Test Address Line 2,Colorado,Boulder,United States,www.example.com,9AM - 5PM Monday - Friday - Except Holidays,011--801-000-0000,80303,40.007978,-105.235589
529,danny@victoryhydro.com,Constantly Growing,1387 E. South Boulder Road Unit D,Test Address Line 2,Colorado,Louisville,United States,www.example.com,9AM - 5PM Monday - Friday - Except Holidays,011--801-000-0000,80027,39.9875123,-105.123507
1024,Josiah@victoryhydro.com,Premier Hydro,1387 E. South Boulder Road Unit D,Test Address Line 2,Colorado,Louisville,United States,www.example.com,9AM - 5PM Monday - Friday - Except Holidays,011--801-000-0000,80027,39.9875123,-105.123507
1133,kyle@kyle.com,West Coast Avengers,980 Miami Way,Test Address Line 2,Colorado,Boulder,United States,www.example.com,9AM - 5PM Monday - Friday - Except Holidays,011--801-000-0000,80305,39.979841,-105.254641
1322,broubie@bravo-lighting.com,Taproot Hydroponics,1751 Panarama Point Unit E,Test Address Line 2,Colorado,Lafayette,United States,www.example.com,9AM - 5PM Monday - Friday - Except Holidays,011--801-000-0000,80026,39.9788412,-105.0694607
172,Dealerservice+amazonfba@methodseven.com,The Hydro Closet,5255 Anson Blvd,Test Address Line 2,Indiana,Whitestown,United States,www.example.com,9AM - 5PM Monday - Friday - Except Holidays,011--801-000-0000,46075,39.9755527,-86.3831621
399,pauljosephs2323@gmail.com,Vital Landscaping,1440 Judson Dr.,Test Address Line 2,Colorado,Boulder,United States,www.example.com,9AM - 5PM Monday - Friday - Except Holidays,011--801-000-0000,80305,39.974117,-105.257186
959,sales@enviroled.us,The Hydro Shack,"7581W. 103rd Ave.,Suite 200",Test Address Line 2,Colorado,Westminster,United States,www.example.com,9AM - 5PM Monday - Friday - Except Holidays,011--801-000-0000,80021,39.883896,-105.080251
434,clint@thebigtomato.com,New Age Gardens,8216 Swadley Ct.,Test Address Line 2,Colorado,Arvada,United States,www.example.com,9AM - 5PM Monday - Friday - Except Holidays,011--801-000-0000,80005,39.846153,-105.131491
482,shane@waytogrow.net,Bardo Enterprises Pty Ltd AU,8101 Raleigh Place,Test Address Line 2,Colorado,Westminster,United States,www.example.com,9AM - 5PM Monday - Friday - Except Holidays,011--801-000-0000,80031,39.8439539,-105.045228
136,hiltonpjones@gmail.com,Shamrock Supply,6731 North Federal Blvd.,Test Address Line 2,Colorado,Denver,United States,www.example.com,9AM - 5PM Monday - Friday - Except Holidays,011--801-000-0000,80221,39.8188741,-105.0251542
583,eomcfloydo@yahoo.com,Colorado Bud Blog,4652 Gibralter St.,Test Address Line 2,Colorado,Denver,United States,www.example.com,9AM - 5PM Monday - Friday - Except Holidays,011--801-000-0000,80249,39.7956911,-104.7572089
178,Justin@maximumGrow.com,Powered By Awesome,22 South Sheridan,Test Address Line 2,Indiana,Indianapolis,United States,www.example.com,9AM - 5PM Monday - Friday - Except Holidays,011--801-000-0000,46219,39.770703,-86.060443
103,Cultivatecolorado@gmail.com,Sunlight Supply,7614 West 38th Ave #B111,Test Address Line 2,Colorado,Wheat Ridge,United States,www.example.com,9AM - 5PM Monday - Friday - Except Holidays,011--801-000-0000,80033,39.7693604,-105.081707
500,sagemasta@gmail.com,Roots Garden Supply,3354 Larimer St.,Test Address Line 2,Colorado,Denver,United States,www.example.com,9AM - 5PM Monday - Friday - Except Holidays,011--801-000-0000,80205,39.765577,-104.97578
1022,milehighsocialmedia@gmail.com,Method Seven Representative,1705 Federal Blvd,Test Address Line 2,Colorado,Denver,United States,www.example.com,9AM - 5PM Monday - Friday - Except Holidays,011--801-000-0000,80204,39.7442693,-105.0256205
204,Thegrowstoreicm@gmail.com,Advanced Hydroponic Garden,8644 W. Colfax Ave.,Test Address Line 2,Colorado,Lakewood,United States,www.example.com,9AM - 5PM Monday - Friday - Except Holidays,011--801-000-0000,80215,39.7400036,-105.0941521
233,jose@costplushydro.com,Hometown Hydroponics,2530 West Barberry Place,Test Address Line 2,Colorado,Denver,United States,www.example.com,9AM - 5PM Monday - Friday - Except Holidays,011--801-000-0000,80204,39.7302861,-105.0185081
900,jmcohen220@hotmail.com,Integgrity Insurance,12 Broadway #220,Test Address Line 2,Colorado,Denver,United States,www.example.com,9AM - 5PM Monday - Friday - Except Holidays,011--801-000-0000,80203,39.716915,-104.987119
900,jmcohen220@hotmail.com,Medicineman,601 S Broadway Suite I,Test Address Line 2,Colorado,Denver,United States,www.example.com,9AM - 5PM Monday - Friday - Except Holidays,011--801-000-0000,80209,39.7057586,-104.9876006
678,Ryan@thecliniccolorado.com,Trichome Tech,601 S. Broadway Suite I,Test Address Line 2,Colorado,Denver,United States,www.example.com,9AM - 5PM Monday - Friday - Except Holidays,011--801-000-0000,80209,39.7057586,-104.9876006
13,cultivate.north@gmail.com,Mountain Feed and Farm Supply,666 Buchtell Blvd.,Test Address Line 2,Colorado,Denver,United States,www.example.com,9AM - 5PM Monday - Friday - Except Holidays,011--801-000-0000,80210,39.6935667,-104.9793551
1118,carns@student.cccs.edu,The Rose Girls Florist & Hydroponic Supplies,2841 S. Lansing Way,Test Address Line 2,Colorado,Aurora,United States,www.example.com,9AM - 5PM Monday - Friday - Except Holidays,011--801-000-0000,80014,39.665286,-104.857583
204,Thegrowstoreicm@gmail.com,Alternative Herbal Health Services,5050 S. Federal Blvd #31,Test Address Line 2,Colorado,Englewood,United States,www.example.com,9AM - 5PM Monday - Friday - Except Holidays,011--801-000-0000,80110,39.6247604,-105.0237568
664,jlancaster@bwgs.com,Heliospectra AB,1400 Hancel Parkway,Test Address Line 2,Indiana,Mooresville,United States,www.example.com,9AM - 5PM Monday - Friday - Except Holidays,011--801-000-0000,46158,39.5714358,-86.3810279
673,scottembree@mac.com,LED it Grow,9682 Beacon Hill Ct.,Test Address Line 2,Colorado,Highlands Ranch,United States,www.example.com,9AM - 5PM Monday - Friday - Except Holidays,011--801-000-0000,80126,39.53996,-104.976802
624,lindsay@happygrowlucky.com,DNA Genetics,11973 Springs Road #100,Test Address Line 2,Colorado,Conifer,United States,www.example.com,9AM - 5PM Monday - Friday - Except Holidays,011--801-000-0000,80433,39.5009632,-105.3254342
206,Headlandsgardensuppy@gmail.com,Northern Roots Grow Supply,630 N Franklin St.,Test Address Line 2,California,Fort Bragg,United States,www.example.com,9AM - 5PM Monday - Friday - Except Holidays,011--801-000-0000,95437,39.448515,-123.80412
454,Jennie@homegrowngardeningsolutions.com,Highland Grow and Flow AU,16935 South Elk Creek Road,Test Address Line 2,Colorado,Pine,United States,www.example.com,9AM - 5PM Monday - Friday - Except Holidays,011--801-000-0000,80470,39.408951,-105.323325
75,Everestgardensupply1@me.com,The Hydro Store,260 Margie Drive,Test Address Line 2,California,Willits,United States,www.example.com,9AM - 5PM Monday - Friday - Except Holidays,011--801-000-0000,95490,39.3859942,-123.343609
24,jeff@methodseven.com,Marijuana Venture Magazine,14370 Muscrove Farm Ct,Test Address Line 2,Michigan,Glenwood,United States,www.example.com,9AM - 5PM Monday - Friday - Except Holidays,011--801-000-0000,21738,39.2791997,-77.02766
859,mendogreenhouse@gmail.com,Growin' Crazy,960 E. School Way,Test Address Line 2,California,Redwood Valley,United States,www.example.com,9AM - 5PM Monday - Friday - Except Holidays,011--801-000-0000,95470,39.265711,-123.205884
859,mendogreenhouse@gmail.com,Hydro 101,P.O. Box 764,Test Address Line 2,California,Redwood Valley,United States,www.example.com,9AM - 5PM Monday - Friday - Except Holidays,011--801-000-0000,95470,39.2652491,-123.2041429
1083,hydromaiden@sbcglobal.net,Second Sun LLC,12506 Loma Rica Drive,Test Address Line 2,California,Grass Valley,United States,www.example.com,9AM - 5PM Monday - Friday - Except Holidays,011--801-000-0000,95945,39.2215976,-121.0117884
284,Purchasing@hometownhydroponics.com,Access Hydroponic,800 S Auburn St,Test Address Line 2,California,Grass Valley,United States,www.example.com,9AM - 5PM Monday - Friday - Except Holidays,011--801-000-0000,95945,39.2013533,-121.0599403
185,gjindoorgardener@gmail.com,Greenhouse Tech,3225 I-70 Business Loop A10,Test Address Line 2,Colorado,Clifton,United States,www.example.com,9AM - 5PM Monday - Friday - Except Holidays,011--801-000-0000,81520,39.0905153,-108.4547488
622,info@mdhydro.com,American Ave. Hydroponics,12130 Nebel Street,Test Address Line 2,Maryland,North Bethesda,United States,www.example.com,9AM - 5PM Monday - Friday - Except Holidays,011--801-000-0000,20723,39.051998,-77.1102951
513,sales@hydroponics-depot.com,Hydrobuilder.com,3266 Centennial Blvd,Test Address Line 2,Colorado,Colorado Springs,United States,www.example.com,9AM - 5PM Monday - Friday - Except Holidays,011--801-000-0000,80907,38.8771311,-104.8470424
218,Greenhousetech@q.com,Southside Garden Supply,917 East Fillmore Street,Test Address Line 2,Colorado,Colorado Springs,United States,www.example.com,9AM - 5PM Monday - Friday - Except Holidays,011--801-000-0000,80907,38.8737496,-104.8093921
542,Angieconsulting@yahoo.com,The Harvest Company,422 S. 8th St.,Test Address Line 2,Colorado,Colorado Springs,United States,www.example.com,9AM - 5PM Monday - Friday - Except Holidays,011--801-000-0000,80905,38.8277247,-104.8407696
106,kbjlkeenan@comcast.net,Grow Guru Horticulture (Pty) South Africa,1109 South Tejon Street,Test Address Line 2,Colorado,Colorado Springs,United States,www.example.com,9AM - 5PM Monday - Friday - Except Holidays,011--801-000-0000,80903,38.8180556,-104.8240337
918,mgftwo@yahoo.com,San Francisco Garden Supply,4447 Granite Drive,Test Address Line 2,California,Rocklin,United States,www.example.com,9AM - 5PM Monday - Friday - Except Holidays,011--801-000-0000,95677,38.7945308,-121.2172986
426,growsupplies@yahoo.com,Black Dog LED,4633 Freeman Hill Dr.,Test Address Line 2,California,Placerville,United States,www.example.com,9AM - 5PM Monday - Friday - Except Holidays,011--801-000-0000,95667,38.6971672,-120.8444571
249,brooke@plantitearth.com,D&S Garden Supplies,3200 Arden Ridge,Test Address Line 2,California,Sacramento,United States,www.example.com,9AM - 5PM Monday - Friday - Except Holidays,011--801-000-0000,95864,38.594621,-121.3899457
720,miked@thegrowbiz.com,GrandAir Aviation,3127 Fite Circle,Test Address Line 2,California,Sacramento,United States,www.example.com,9AM - 5PM Monday - Friday - Except Holidays,011--801-000-0000,95827,38.572596,-121.325366
6,brad.mia@gmail.com,Green in the Black,641 Bowen Circle,Test Address Line 2,Utah,Moab,United States,www.example.com,9AM - 5PM Monday - Friday - Except Holidays,011--801-000-0000,84532,38.568055,-109.538307
55,lyn@gardenspout.com,Edens Hydro Gardening Store,1236 Briggs Avenue,Test Address Line 2,California,Santa Rosa,United States,www.example.com,9AM - 5PM Monday - Friday - Except Holidays,011--801-000-0000,95401,38.449527,-122.728545
1319,houstonsmothermon@hotmail.com,Oasis Hydroponics Inc,992 Stanislaus Way,Test Address Line 2,California,Santa Rosa,United States,www.example.com,9AM - 5PM Monday - Friday - Except Holidays,011--801-000-0000,95401,38.441896,-122.758881
75,Everestgardensupply1@me.com,Method Seven,P.O. Box 6006,Test Address Line 2,California,Santa Rosa,United States,www.example.com,9AM - 5PM Monday - Friday - Except Holidays,011--801-000-0000,95406,38.44,-122.71
43,chad@thegrowbiz.com,J & K Hydroponics AU,6731 Sebastopol Ave.,Test Address Line 2,California,Sebastopol,United States,www.example.com,9AM - 5PM Monday - Friday - Except Holidays,011--801-000-0000,95472,38.4026186,-122.8192157
645,Don@srhydro.com,"Hydrodynamics International, Inc. Marketing",4180 S. Moorland Ave.,Test Address Line 2,California,Santa Rosa,United States,www.example.com,9AM - 5PM Monday - Friday - Except Holidays,011--801-000-0000,95407,38.3769721,-122.7173099
260,kfoudy@gmail.com,House of Hydroponics,55 Enterprise Court Unit 2,Test Address Line 2,California,Napa,United States,www.example.com,9AM - 5PM Monday - Friday - Except Holidays,011--801-000-0000,94558,38.260867,-122.27331
1260,nwgardensupply@gmail.com,One Love Garden Supply,9100 E Marginal Way S,Test Address Line 2,Washington,Seattle,United States,www.example.com,9AM - 5PM Monday - Friday - Except Holidays,011--801-000-0000,98108,38.18979,-122.141821
36,K.Trichometechnologies@gmail.com,Chlorophyll,646 Henry St.,Test Address Line 2,California,Vallejo,United States,www.example.com,9AM - 5PM Monday - Friday - Except Holidays,011--801-000-0000,94591,38.112021,-122.220362
447,Adam@motherlodehydroponics.com,Willow's Garden Supply,795 W Stockton Road,Test Address Line 2,California,Sonora,United States,www.example.com,9AM - 5PM Monday - Friday - Except Holidays,011--801-000-0000,95370,37.9770091,-120.3914031
1330,elizabethbiddlecome@gmail.com,Method Seven Marketing & Trade Shows,1360 s 49th,Test Address Line 2,California,richmond,United States,www.example.com,9AM - 5PM Monday - Friday - Except Holidays,011--801-000-0000,94804,37.912935,-122.3282498
23,customerservice@methodseven.com,Hydroponics 4 Less,1606 Milvia Street,Test Address Line 2,California,Berkeley,United States,www.example.com,9AM - 5PM Monday - Friday - Except Holidays,011--801-000-0000,94709,37.8775113,-122.2713441
715,hempstore@patientidcenter.org,"Grassroots Pharm, Inc.",P.O. Box 70401,Test Address Line 2,California,Oakland,United States,www.example.com,9AM - 5PM Monday - Friday - Except Holidays,011--801-000-0000,94612,37.8113159,-122.2682245
715,hempstore@patientidcenter.org,"Grassroots Pharm, Inc.",1733 Broadway,Test Address Line 2,California,Oakland,United States,www.example.com,9AM - 5PM Monday - Friday - Except Holidays,011--801-000-0000,94612,37.8072819,-122.2696211
249,brooke@plantitearth.com,Method Seven,1 Dorman Ave.,Test Address Line 2,California,San Francisco,United States,www.example.com,9AM - 5PM Monday - Friday - Except Holidays,011--801-000-0000,94124,37.7398669,-122.4014368
1009,barbackflow@aol.com,NorCal HydroGardens & Organics,P.O. Box 920,Test Address Line 2,California,San Leandro,United States,www.example.com,9AM - 5PM Monday - Friday - Except Holidays,011--801-000-0000,94577,37.7199247,-122.1689284
359,gddmc5@aol.com,Palm Springs Hydroponics and Organics,PO Box 86,Test Address Line 2,Colorado,Rico,United States,www.example.com,9AM - 5PM Monday - Friday - Except Holidays,011--801-000-0000,81332,37.6927729,-108.0303502
273,DBC.INC88@yahoo.com,Garden Wise,5445 Nyland,Test Address Line 2,California,Union City,United States,www.example.com,9AM - 5PM Monday - Friday - Except Holidays,011--801-000-0000,94587,37.5952304,-122.043969
653,wcavengr@gmail.com,Victory Hydro Gardens,PO Box 6427,Test Address Line 2,California,San Mateo,United States,www.example.com,9AM - 5PM Monday - Friday - Except Holidays,011--801-000-0000,94403,37.5349925,-122.3050823
1155,mitch.sadlar@gmail.com,Flint DIgital,1515 Amblewood Drive,Test Address Line 2,Missouri,Cape Girardeau,United States,www.example.com,9AM - 5PM Monday - Friday - Except Holidays,011--801-000-0000,63701,37.335097,-89.54061
54,DHL@hushmail.com,Jim's Flowers II DBA - Northern Lights H.G.S,99 Clear Creek Loop,Test Address Line 2,Colorado,Durango,United States,www.example.com,9AM - 5PM Monday - Friday - Except Holidays,011--801-000-0000,81301,37.313882,-107.782263
518,Andrea@methodseven.com,Bad Apple Arts,2851 E Research Park Drive,Test Address Line 2,California,Soquel,United States,www.example.com,9AM - 5PM Monday - Friday - Except Holidays,011--801-000-0000,95073,36.9857,-121.968518
616,MatthewChana@gmail.com,Botani Garden,2851 E Research Park Drive,Test Address Line 2,California,Soquel,United States,www.example.com,9AM - 5PM Monday - Friday - Except Holidays,011--801-000-0000,95073,36.9857,-121.968518
20,james@methodseven.com,Brew and Grow / Alternative Garden Supply,2851 E Research Park Dr.,Test Address Line 2,California,Soquel,United States,www.example.com,9AM - 5PM Monday - Friday - Except Holidays,011--801-000-0000,95073,36.9857,-121.968518
86,dealerservice@methodseven.com,Grace's Hydro-Organic Garden Center,2851 E Research Park Dr,Test Address Line 2,California,Soquel,United States,www.example.com,9AM - 5PM Monday - Friday - Except Holidays,011--801-000-0000,95073,36.9857,-121.968518
19,Bill@methodseven.com,Method Seven,2851 Research Park Dr. Unit E,Test Address Line 2,California,Soquel,United States,www.example.com,9AM - 5PM Monday - Friday - Except Holidays,011--801-000-0000,95073,36.9857,-121.968518
683,Mr.Cash@cash.com,The Hydro Source,2851 E Research Park Drive Suite E,Test Address Line 2,California,Soquel,United States,www.example.com,9AM - 5PM Monday - Friday - Except Holidays,011--801-000-0000,95073,36.9857,-121.968518
467,Barry@methodseven.com,Urban Hydroponics AU,2851 E Research Park Drive,Test Address Line 2,California,Soquel,United States,www.example.com,9AM - 5PM Monday - Friday - Except Holidays,011--801-000-0000,95073,36.9857,-121.968518
952,chrisdevenpeck@yahoo.com,Mount Shasta's Green Thumb,720 Pleasant Valley Lane,Test Address Line 2,California,Aptos,United States,www.example.com,9AM - 5PM Monday - Friday - Except Holidays,011--801-000-0000,95003,36.9840689,-121.8242061
1040,walker.pearcepercy@gmail.com,Tradewinds Sunglass Company,609 Riverview Drive,Test Address Line 2,California,Capitola,United States,www.example.com,9AM - 5PM Monday - Friday - Except Holidays,011--801-000-0000,95010,36.977766,-121.956281
202,surfingcowboy1@gmail.com,SnoGro Indoor Gardening Supply,692 38th Ave. #21,Test Address Line 2,California,Santa Cruz,United States,www.example.com,9AM - 5PM Monday - Friday - Except Holidays,011--801-000-0000,95062,36.962248,-121.966325
245,hydrobroahg@peoplepc.com,Indoor Garden Solution,P.O Box 353,Test Address Line 2,Tennessee,Dandridge,United States,www.example.com,9AM - 5PM Monday - Friday - Except Holidays,011--801-000-0000,37725,36.0153693,-83.4148895
336,info@nmhydroponic.com,Los Angeles Hydroponics and Organics,107 Jimenez St.,Test Address Line 2,New Mexico,Santa Fe,United States,www.example.com,9AM - 5PM Monday - Friday - Except Holidays,011--801-000-0000,87501,35.6904224,-105.9496809
1208,andrewtumason@gmail.com,D.R.Labs s.r.l.s.,148 Mesa Verde Street,Test Address Line 2,New Mexico,Santa Fe,United States,www.example.com,9AM - 5PM Monday - Friday - Except Holidays,011--801-000-0000,87501,35.6888052,-105.968186
383,santafeindoorstore@hotmail.com,Aggressive Garden,1228 parkway Drive Suite E,Test Address Line 2,New Mexico,Santa Fe,United States,www.example.com,9AM - 5PM Monday - Friday - Except Holidays,011--801-000-0000,87507,35.655143,-105.998481
354,danthehydroman@yahoo.com,Maryland Hydroponics,2729 Brundage Ln.,Test Address Line 2,California,Bakersfield,United States,www.example.com,9AM - 5PM Monday - Friday - Except Holidays,011--801-000-0000,93304,35.353798,-119.033373
759,NCstore@htgsupply.com,Hydroponics and More,2712 Freedom Drive,Test Address Line 2,North Carolina,Charlotte,United States,www.example.com,9AM - 5PM Monday - Friday - Except Holidays,011--801-000-0000,28208,35.239019,-80.883929
308,Matt@seaofgreen.net,Method Seven,17 N. Leroux,Test Address Line 2,Arizona,Flagstaff,United States,www.example.com,9AM - 5PM Monday - Friday - Except Holidays,011--801-000-0000,86001,35.1982478,-111.6491502
308,Matt@seaofgreen.net,Trans High Corp.,204-C E. Route 66,Test Address Line 2,Arizona,Flagstaff,United States,www.example.com,9AM - 5PM Monday - Friday - Except Holidays,011--801-000-0000,86001,35.197015,-111.646492
471,Cashcanyo@epbfi.com,The Grow Room AU,2456 cash canyon road,Test Address Line 2,Tennessee,Chattanooga,United States,www.example.com,9AM - 5PM Monday - Friday - Except Holidays,011--801-000-0000,37419,35.1037899,-85.363272
656,hdhydroponics@gmail.com,DNA Genetics,13631 Pawnee Rd.,Test Address Line 2,California,Apple Valley,United States,www.example.com,9AM - 5PM Monday - Friday - Except Holidays,011--801-000-0000,92308,34.4992023,-117.1862323
238,info@bvhydro.com,Holland Forge Australia,17455 Bear Valley Road,Test Address Line 2,California,Hesperia,United States,www.example.com,9AM - 5PM Monday - Friday - Except Holidays,011--801-000-0000,92345,34.470334,-117.282595
126,1333145013@methodseven.com,Green Hands of Aloha,1948 Chivers St.,Test Address Line 2,California,San Fernando,United States,www.example.com,9AM - 5PM Monday - Friday - Except Holidays,011--801-000-0000,91340,34.300571,-118.433407
187,argad@sunlandhydro.com,Rock Nutrients,8300 Foothill Blvd.,Test Address Line 2,California,Sunland,United States,www.example.com,9AM - 5PM Monday - Friday - Except Holidays,011--801-000-0000,91040,34.2594616,-118.3135372
466,Kyle@kushman.com,Lush Lighting,19803 Covello Street,Test Address Line 2,California,Winnetka,United States,www.example.com,9AM - 5PM Monday - Friday - Except Holidays,011--801-000-0000,91306,34.207693,-118.564512
226,ajohnny88@yahoo.com,Oso Tool and Garden Supply,12822 Victory Blvd.,Test Address Line 2,California,North Hollywood,United States,www.example.com,9AM - 5PM Monday - Friday - Except Holidays,011--801-000-0000,91606,34.1864771,-118.4126426
654,fakeemailaddress@gmail.com,Method Seven,13170 Cumpston St,Test Address Line 2,California,Sherman Oaks,United States,www.example.com,9AM - 5PM Monday - Friday - Except Holidays,011--801-000-0000,91401,34.169186,-118.419835
1028,Don@don.com,Simple Soil Hydroponics,13636 Ventura Blvd Box 153,Test Address Line 2,California,Sherman Oaks,United States,www.example.com,9AM - 5PM Monday - Friday - Except Holidays,011--801-000-0000,91423,34.1482691,-118.4338345
343,leiferjason@gmail.com,Method Seven Representative,23350 Park Hacienda,Test Address Line 2,California,Calabasas,United States,www.example.com,9AM - 5PM Monday - Friday - Except Holidays,011--801-000-0000,91302,34.144884,-118.636235
349,houseofhydroponics@yahoo.com,Growize Inc.,732 West Arrow Hwy,Test Address Line 2,California,San Dimas,United States,www.example.com,9AM - 5PM Monday - Friday - Except Holidays,011--801-000-0000,91773,34.1065922,-117.8225632
328,Jason@growlite.com,Miramar Hydroponics,908 W. Calora St.,Test Address Line 2,California,San Dimas,United States,www.example.com,9AM - 5PM Monday - Friday - Except Holidays,011--801-000-0000,91773,34.104232,-117.824905
539,nostresshydroso@gmail.com,Columbia Care,7543 Santa Monica Blvd.,Test Address Line 2,California,West Hollywood,United States,www.example.com,9AM - 5PM Monday - Friday - Except Holidays,011--801-000-0000,90046,34.0909773,-118.3543082
345,Palmtreehydroponics@gmail.com,Reno Hydroponics,2235 E 4th St. Suite G,Test Address Line 2,California,Ontario,United States,www.example.com,9AM - 5PM Monday - Friday - Except Holidays,011--801-000-0000,91764,34.0779853,-117.6027501
299,Greenmilehydro@gmail.com,The Big Tomato,1480 South E Street,Test Address Line 2,California,San Bernardino,United States,www.example.com,9AM - 5PM Monday - Friday - Except Holidays,011--801-000-0000,92408,34.0729382,-117.2947257
313,thaiphu@gmail.com,Grow Big Supply,2701 Merced Ave.,Test Address Line 2,California,El Monte,United States,www.example.com,9AM - 5PM Monday - Friday - Except Holidays,011--801-000-0000,91733,34.060994,-118.051726
210,templehydroshop@gmail.com,GreenSpirit Hydrogardens,3503 Temple Ave Suite A,Test Address Line 2,California,Pomona,United States,www.example.com,9AM - 5PM Monday - Friday - Except Holidays,011--801-000-0000,91768,34.0478134,-117.8114906
193,keisha@oslholding.com,High Wire Hydroponics,1428 Nadeao Drive,Test Address Line 2,California,Los Angeles,United States,www.example.com,9AM - 5PM Monday - Friday - Except Holidays,011--801-000-0000,90019,34.0462677,-118.3326564
371,max@dthydro.com,Method Seven Sales,443 East 16 Street,Test Address Line 2,California,Los Angeles,United States,www.example.com,9AM - 5PM Monday - Friday - Except Holidays,011--801-000-0000,90015,34.03127,-118.257811
367,dthydro@yahoo.com,West Coast Avengers,443 East 16th Street,Test Address Line 2,California,Los Angeles,United States,www.example.com,9AM - 5PM Monday - Friday - Except Holidays,011--801-000-0000,90015,34.03127,-118.257811
322,manager@hydroponicsinc.net,Growlite,3811 Wacker Dr.,Test Address Line 2,California,Riverside,United States,www.example.com,9AM - 5PM Monday - Friday - Except Holidays,011--801-000-0000,91752,34.0179058,-117.5158622
1059,keith@thehydrosource.com,Rain City Hydro,11760 Slauson Ave,Test Address Line 2,California,Santa Fe Springs,United States,www.example.com,9AM - 5PM Monday - Friday - Except Holidays,011--801-000-0000,90670,33.96397,-118.064409
1070,info@florahydroponics.com,Atwater Hydroponics Inc.,1239 Fowler Street NW,Test Address Line 2,Georgia,Athens,United States,www.example.com,9AM - 5PM Monday - Friday - Except Holidays,011--801-000-0000,30607,33.9629393,-83.506363
677,pitbulldan83@yahoo.com,Esposito Garden Center,4832 W 141st Street,Test Address Line 2,California,Hawthorne,United States,www.example.com,9AM - 5PM Monday - Friday - Except Holidays,011--801-000-0000,90250,33.903449,-118.362458
595,lahydro@att.net,Senmatic A/S,2805 W. 157th Street,Test Address Line 2,California,Gardena,United States,www.example.com,9AM - 5PM Monday - Friday - Except Holidays,011--801-000-0000,90249,33.888554,-118.324448
170,Raphae@raphael.com,Method Seven Marketing & Trade Shows,2109 Graham Ave.,Test Address Line 2,California,Redondo Beach,United States,www.example.com,9AM - 5PM Monday - Friday - Except Holidays,011--801-000-0000,90278,33.8795487,-118.3740541
298,jacki@mytotalhydroponicscenter.com,Urban Organics (FL,4820 Paramount Blvd,Test Address Line 2,California,Lakewood,United States,www.example.com,9AM - 5PM Monday - Friday - Except Holidays,011--801-000-0000,90712,33.8465398,-118.1596653
555,pshydroponics@gmail.com,Mendocino County Hydrogardens,1301 Montalvo Way Suite 8,Test Address Line 2,California,Palm Springs,United States,www.example.com,9AM - 5PM Monday - Friday - Except Holidays,011--801-000-0000,92262,33.840822,-116.510265
641,zenred@live.com,Growers House,1301 Montalvo Way Suite 8,Test Address Line 2,California,Palm Springs,United States,www.example.com,9AM - 5PM Monday - Friday - Except Holidays,011--801-000-0000,92262,33.8407223,-116.5099738
89,joemartin@atlantishydroponics.com,Purple Mountain Hydroponics,1422 Woodmont Lane Suite #4,Test Address Line 2,Georgia,Atlanta,United States,www.example.com,9AM - 5PM Monday - Friday - Except Holidays,011--801-000-0000,30318,33.8031886,-84.4342073
248,scott@dutchgardensupplies.com,Third Coast Horticulture Supply,17831 Sky Park Circle Ste 12 C-D,Test Address Line 2,California,Irvine,United States,www.example.com,9AM - 5PM Monday - Friday - Except Holidays,011--801-000-0000,92614,33.6902506,-117.8616077
1036,m@methodseven.com,Deep Roots Hydroponics,3855 Ruby Harper Blvd,Test Address Line 2,Georgia,Atlanta,United States,www.example.com,9AM - 5PM Monday - Friday - Except Holidays,011--801-000-0000,30354,33.6495397,-84.3805862
411,grassrootshydrochick@gmail.com,Oil Slick,31875 Corydon Rd Suite #130,Test Address Line 2,California,Lake Elsinore,United States,www.example.com,9AM - 5PM Monday - Friday - Except Holidays,011--801-000-0000,92530,33.63244,-117.293869
263,thehydrocloset@yahoo.com,Kern Hydroponics,5826 W Olive Ave.,Test Address Line 2,Arizona,Glendale,United States,www.example.com,9AM - 5PM Monday - Friday - Except Holidays,011--801-000-0000,85302,33.5690279,-112.1846084
469,editor@420magazine.com,Greenleaf Hydroponics AU,14 Monarch Bay Plaza #420,Test Address Line 2,California,Monarch Beach,United States,www.example.com,9AM - 5PM Monday - Friday - Except Holidays,011--801-000-0000,92629,33.4860351,-117.72453
142,steven@seaofgreen.com,Ultra Green Hydroponics,1301 E. University Dr. #134,Test Address Line 2,Arizona,Tempe,United States,www.example.com,9AM - 5PM Monday - Friday - Except Holidays,011--801-000-0000,85281,33.4215567,-111.9169322
899,gardensolutionsaz@gmail.com,Hydro Ponics Inc.,2245 W. University Dr. Ste. 3,Test Address Line 2,Arizona,Tempe,United States,www.example.com,9AM - 5PM Monday - Friday - Except Holidays,011--801-000-0000,85281,33.4213911,-111.9726791
571,northcountyhydroponics@gmail.com,Green Grow,115 South Coast Highway,Test Address Line 2,California,Oceanside,United States,www.example.com,9AM - 5PM Monday - Friday - Except Holidays,011--801-000-0000,92054,33.1945062,-117.3785035
219,amanda@sdhydroponics.com,Endless Green Hydroponics,802 North Twin Oaks Valley Road,Test Address Line 2,California,San Marcos,United States,www.example.com,9AM - 5PM Monday - Friday - Except Holidays,011--801-000-0000,92069,33.1535039,-117.1620072
250,info@greenspirithydro.com,The Grow Show,1864 Meeting Street,Test Address Line 2,South Carolina,Charleston,United States,www.example.com,9AM - 5PM Monday - Friday - Except Holidays,011--801-000-0000,29405,32.8296732,-79.9522025
250,info@greenspirithydro.com,Full Scale Soil and Hydro,3002 Coopers Basin Cir,Test Address Line 2,South Carolina,Charleston,United States,www.example.com,9AM - 5PM Monday - Friday - Except Holidays,011--801-000-0000,29414,32.807743,-80.080841
575,miramarhydro@yahoo.com,Maine Hydroponic Supply,1338 Marline Ave,Test Address Line 2,California,El Cajon,United States,www.example.com,9AM - 5PM Monday - Friday - Except Holidays,011--801-000-0000,92021,32.805521,-116.933463
536,info@mightyhydro.com,Indoor Farming Supplies,4780 Mission Gorge Place A1,Test Address Line 2,California,San Diego,United States,www.example.com,9AM - 5PM Monday - Friday - Except Holidays,011--801-000-0000,92120,32.7813631,-117.0913344
100,rod.lertola@hydrodynamicsintl.com,The Plant,8707 Temple Terrace Hwy,Test Address Line 2,Florida,Tampa,United States,www.example.com,9AM - 5PM Monday - Friday - Except Holidays,011--801-000-0000,33637,28.0324518,-82.3562666
163,Thefuturefarms@comcast.net,Go Green Hydroponics,14291 SW 120th St. Suite 105,Test Address Line 2,Florida,Miami,United States,www.example.com,9AM - 5PM Monday - Friday - Except Holidays,011--801-000-0000,33186,25.6557751,-80.4270664
982,jeff.gibson@superiorgrowers.com,Method Seven,13080 SW 248th St Unit 11,Test Address Line 2,Florida,Homestead,United States,www.example.com,9AM - 5PM Monday - Friday - Except Holidays,011--801-000-0000,33032,25.536359,-80.404042
780,info@GrowforXS.com,EcoGrow LED,24 Simms Road,Test Address Line 2,WA,Greensborough,United States,www.example.com,9AM - 5PM Monday - Friday - Except Holidays,011--801-000-0000,3008,-37.711954,145.11134
784,info@truebloominhydroponics.com,Vertical Hydrogarden,7/36 Port Kembla Drive,Test Address Line 2,WA,Bibra Lake,United States,www.example.com,9AM - 5PM Monday - Friday - Except Holidays,011--801-000-0000,6163,-32.099786,115.800884
781,info@thegrowroom.com,The Urban Garden,1/1451 Albany Highway,Test Address Line 2,WA,Cannington,United States,www.example.com,9AM - 5PM Monday - Friday - Except Holidays,011--801-000-0000,6107,-32.026276,115.94215
1038,csteele@heliospectra.com,Marijuana Venture Magazine,"SIK, Frans Perssons väg 6",Test Address Line 2,Göteborg,Delsjömotet,Sweden,www.example.com,9AM - 5PM Monday - Friday - Except Holidays,011--801-000-0000,SE-412 76,57.6827145,12.0302828
728,Themabp@rambler.ru,Sweet Lime,Generala Tuleneva street. 7/2 269,Test Address Line 2,Dealer,Moscow,Russia,www.example.com,9AM - 5PM Monday - Friday - Except Holidays,011--801-000-0000,117465,55.621704,37.485855
852,Conflo2004@hotmail.com,Grow RI Newport,35 Griffin Grove,Test Address Line 2,Dealer,Levenshulme,United Kingdom,www.example.com,9AM - 5PM Monday - Friday - Except Holidays,011--801-000-0000,M19 2QQ,53.4397258,-2.189767
147,dennis@drehandel.de,Amazon FBA,Libauer Str. 17,Test Address Line 2,Berlin,Berlin,Germany,www.example.com,9AM - 5PM Monday - Friday - Except Holidays,011--801-000-0000,10245,52.5091134,13.4540036
860,martinew@gerbera.com,New England Hydroponics,P.O. Box 3,Test Address Line 2,Dealer,AA Aalsmeer,Netherlands,www.example.com,9AM - 5PM Monday - Friday - Except Holidays,011--801-000-0000,1430,52.3505505,4.8496748
397,Growshop@plantator.com.pl,All Ways Hydro,ul. Poznanska 49,Test Address Line 2,Dealer,Wiorek,Poland,www.example.com,9AM - 5PM Monday - Friday - Except Holidays,011--801-000-0000,61-160,52.3036778,16.908081
860,martinew@gerbera.com,East Coast Hydro,Dwarsweg 15,Test Address Line 2,Dealer,PL De Kwakel,Netherlands,www.example.com,9AM - 5PM Monday - Friday - Except Holidays,011--801-000-0000,1424,52.2293971,4.7558489
808,angharadblayney@gmail.com,Planet Natural,41 High Cross Lane,Test Address Line 2,South Wales,Newport,Wales,www.example.com,9AM - 5PM Monday - Friday - Except Holidays,011--801-000-0000,NP10 9BG,51.5842416,-3.0381256
1021,wini@grow.de,MethodSeven Sales,Liebenauer Str. 19a,Test Address Line 2,Hessen,Liebenau,Austria,www.example.com,9AM - 5PM Monday - Friday - Except Holidays,011--801-000-0000,34396,51.49179,9.27074
374,info@semenakonopi.cz,Hydro 101,Raisova 15,Test Address Line 2,Dealer,Usti nad Labem,Czech Republic,www.example.com,9AM - 5PM Monday - Friday - Except Holidays,011--801-000-0000,400 03,50.6573787,14.0477802
317,originalgrowshop@gmail.com,Northern Lights Gardening,Palackeho 203,Test Address Line 2,Dealer,Marianske Lazne,Czech Republic,www.example.com,9AM - 5PM Monday - Friday - Except Holidays,011--801-000-0000,35301,49.955867,12.7095398
324,pawelpiotrdtv@hotmail.com,Dayton Hydro,Gustawa Morcinka 5/73,Test Address Line 2,Dealer,Skoczow,Poland,www.example.com,9AM - 5PM Monday - Friday - Except Holidays,011--801-000-0000,43-430,49.7942158,18.7864815
1048,helena.urbankova@mazar.cz,Method Seven,Mathonova 20,Test Address Line 2,Dealer,Brno,Czech Republic,www.example.com,9AM - 5PM Monday - Friday - Except Holidays,011--801-000-0000,61300,49.2139487,16.6232335
405,osijek@igrow.com.hr,Happy Harvesters (AZ),Hrvatske Republike 43,Test Address Line 2,Dealer,Osijek,Croatia,www.example.com,9AM - 5PM Monday - Friday - Except Holidays,011--801-000-0000,31000,45.5582336,18.6767844
269,jorge@plantasur.com,Mother Nature Hydroponics,Poligono Industrial Asegra C/Sierra De Lujar 1,Test Address Line 2,Granada,Peligros,Spain,www.example.com,9AM - 5PM Monday - Friday - Except Holidays,011--801-000-0000,18210,37.22824,-3.62632
372,miramarhydro@yahoo.com,Indoor Eden,5360 Marengo Ave Apt. 44,Test Address Line 2,California,La Mesa,United States,www.example.com,9AM - 5PM Monday - Friday - Except Holidays,011--801-000-0000,91942,32.776386,-117.023529
385,ryan.acosta@sdhydroponics.com,Placebo Sårl,645 Marsat Ct. #101,Test Address Line 2,California,Chula Vista,United States,www.example.com,9AM - 5PM Monday - Friday - Except Holidays,011--801-000-0000,91911,32.6005372,-117.0818294
1035,gene@gene.com,Grace's Gardening,1951 E Roger Rd,Test Address Line 2,Arizona,Tucson,United States,www.example.com,9AM - 5PM Monday - Friday - Except Holidays,011--801-000-0000,85719,32.2794917,-110.9429131
1010,kartika@growershouse.com,Aurora Hydroponics,1501 E. 21st St.,Test Address Line 2,Arizona,Tuscon,United States,www.example.com,9AM - 5PM Monday - Friday - Except Holidays,011--801-000-0000,85719,32.2085463,-110.9486531
960,Chaselancaster.pk@gmail.com,C.A.R.E.,P.O. Box 13549,Test Address Line 2,Texas,Austin,United States,www.example.com,9AM - 5PM Monday - Friday - Except Holidays,011--801-000-0000,78711,30.2781094,-97.738445
476,troy@bihydro.com,Hindmarsh Hydroponics AU,4201 South Congress,Test Address Line 2,Texas,Austin,United States,www.example.com,9AM - 5PM Monday - Friday - Except Holidays,011--801-000-0000,78745,30.2205088,-97.7648499
1353,chris.gatorhydro@gmail.com,West Coast Hydroponics,4460 SW 35th Terrace,Test Address Line 2,Florida,Gainsville,United States,www.example.com,9AM - 5PM Monday - Friday - Except Holidays,011--801-000-0000,32608,29.611205,-82.375556
212,Jmarie1217@yahoo.com,Happy Harvesters,8438 timber bridge,Test Address Line 2,Texas,San Antonio,United States,www.example.com,9AM - 5PM Monday - Friday - Except Holidays,011--801-000-0000,78250,29.494422,-98.654889
1245,JessicaVivian8@yahoo.com,Green Thumb Organics,1313 West Church Street,Test Address Line 2,New York,Deland,United States,www.example.com,9AM - 5PM Monday - Friday - Except Holidays,011--801-000-0000,32720,29.030892,-81.329734
936,carolinefiane@gmail.com,Cultivation Innovations,Urbinizacion Caleta alta 19,Test Address Line 2,Las Palmas,Caleta De Fuste,Spain,www.example.com,9AM - 5PM Monday - Friday - Except Holidays,011--801-000-0000,35610,28.3968004,-13.8638232
779,rpoort@bigpond.net.au,Growsystem GmbH Oberbüren,22 Chris Drive,Test Address Line 2,VC,Lilydale,Australia,www.example.com,9AM - 5PM Monday - Friday - Except Holidays,011--801-000-0000,3140,-37.7475029,145.3507634
794,info@Bardo.com,Mark's Hydroponics And Organic Gardening,4/20 Sunset Ave.,Test Address Line 2,VC,Barrack Heights,Australia,www.example.com,9AM - 5PM Monday - Friday - Except Holidays,011--801-000-0000,2528,-34.560553,150.85795
1152,info@growguru.co.za,Solos Grow Shop,"74 3rd Avenue, Newton Park",Test Address Line 2,Dealer,Port Elizabeth,South Africa,www.example.com,9AM - 5PM Monday - Friday - Except Holidays,011--801-000-0000,6045,-33.95235,25.56755
392,ctutun@gmail.com,Indoor Plant Kingdom LLC,8 Stock Farm Ave,Test Address Line 2,NSW,Bella Vista,Australia,www.example.com,9AM - 5PM Monday - Friday - Except Holidays,011--801-000-0000,2153,-33.739094,150.961276
393,ctutun@gmail.com,Salida Hydroponic Supply,8 Stock Farm Ave,Test Address Line 2,NSW,Bella Vista,Australia,www.example.com,9AM - 5PM Monday - Friday - Except Holidays,011--801-000-0000,2153,-33.739094,150.961276
477,alister@oz.com,Green Acres Hydroponics AU,P.O. Box 146,Test Address Line 2,NSW,Kenthurst,Australia,www.example.com,9AM - 5PM Monday - Friday - Except Holidays,011--801-000-0000,2156,-33.6611485,151.0052512